{
  "norad_id": 45026,
  "name": "GSAT-30",
  "history": [
    {
      "epoch": "2026-05-01T03:28:48.768096Z",
      "apogee_km": 35799.20877321877,
      "perigee_km": 35774.602940809134,
      "latitude_deg": -0.035379696638829145,
      "longitude_deg": 82.95279799487335,
      "height_km": 35783.79850284934,
      "semi_major_axis_km": 42165.042857013956,
      "eccentricity": 0.00029178,
      "inclination_deg": 0.0634,
      "raan_deg": 87.1763,
      "arg_perigee_deg": 345.1777,
      "mean_anomaly_deg": 281.9194,
      "mean_motion_rev_day": 1.00270676
    }
  ]
}